YAOGAN 9B               
1 36414U 10009B   21141.42412588 -.00000087  00000-0  40063-5 0  9995
2 36414  63.3865 100.4688 0375919   9.4444 351.3406 13.45211052550878
YAOGAN 9C               
1 36415U 10009C   21141.57215657 -.00000058  00000-0  36245-4 0  9994
2 36415  63.3853 100.7408 0376928   9.7472 351.0606 13.45211201550868
ECHOSTAR 14             
1 36499U 10010A   21141.41188955  .00000006  00000-0  00000-0 0  9999
2 36499   0.0148 285.6498 0002794 138.3363 204.6794  1.00270498 27986
CRYOSAT 2               
1 36508U 10013A   21141.44474959  .00000006  00000-0  81569-6 0  9993
2 36508  92.0138 189.3753 0007720 127.4963 232.6947 14.51907016589279
SES-1                   
1 36516U 10016A   21141.37606755 -.00000109  00000-0  00000-0 0  9998
2 36516   0.0303  65.3249 0002728 353.8710 214.4250  1.00270884 40466
COSMOS 2463             
1 36519U 10017A   21141.57635435  .00000016  00000-0  10401-5 0  9998
2 36519  82.9615 170.6525 0034809 228.2191 131.5992 13.71455580554072
ASTRA 3B                
1 36581U 10021A   21141.28849262  .00000142  00000-0  00000-0 0  9994
2 36581   0.0391  22.4807 0003374  47.0143 297.0189  1.00272354 40292
COMSATBW-2              
1 36582U 10021B   21141.32618947  .00000093  00000-0  00000-0 0  9999
2 36582   0.0177  75.9141 0003054   5.3100 288.5387  1.00271737 40372
NAVSTAR 65 (USA 213)    
1 36585U 10022A   21140.48660581 -.00000021  00000-0  00000-0 0  9992
2 36585  55.0662 283.3636 0097147  54.7390 123.4976  2.00569022 80411
BADR-5                  
1 36592U 10025A   21141.28901604  .00000150  00000-0  00000-0 0  9998
2 36592   0.0050 241.1214 0004080 217.1842 270.9072  1.00273611 34638
SJ-12                   
1 36596U 10027A   21141.69138224  .00000147  00000-0  17792-4 0  9995
2 36596  97.6845 130.1865 0010447 263.3549  96.6484 14.96964107596422
TANDEM-X                
1 36605U 10030A   21141.47729515 -.00000083  00000-0 -75517-6 0  9997
2 36605  97.4467 149.6691 0002328  80.5398  74.6724 15.19148004605355
COMS 1                  
1 36744U 10032A   21141.38113719 -.00000339  00000-0  00000-0 0  9998
2 36744   0.1369  95.7331 0000950 312.3429  96.5539  1.00271865 32519
ARABSAT-5A              
1 36745U 10032B   21141.28988840  .00000158  00000-0  00000-0 0  9991
2 36745   0.0681  44.9422 0004239  44.8471 284.1952  1.00271673 40061
ECHOSTAR 15             
1 36792U 10034A   21141.24188789 -.00000276  00000-0  00000-0 0  9997
2 36792   0.0150 299.8871 0002125  94.4984 230.1378  1.00270906 39750
CARTOSAT-2B             
1 36795U 10035A   21141.44490900  .00000074  00000-0  16993-4 0  9991
2 36795  97.8699 200.6561 0015317  71.9285 288.3596 14.78694933586137
AISSAT 1                
1 36797U 10035C   21141.40474572  .00000261  00000-0  36129-4 0  9997
2 36797  98.2147 306.5023 0011250  12.0895 348.0588 14.86492239588193
ALSAT 2A                
1 36798U 10035D   21141.42471797  .00000097  00000-0  24855-4 0  9996
2 36798  97.9154 190.5041 0001688  85.2691 274.8709 14.68229200581302
TISAT 1                 
1 36799U 10035E   21141.41916398  .00000675  00000-0  73171-4 0  9994
2 36799  98.2067 331.1425 0011013 306.5364  53.4839 14.91720814589304
BEIDOU 5                
1 36828U 10036A   21141.03021483 -.00000026  00000-0  00000-0 0  9996
2 36828  54.1716 179.8478 0112800 235.2624 313.8141  1.00269604 39633
NILESAT 201             
1 36830U 10037A   21141.35418128 -.00000052  00000-0  00000-0 0  9990
2 36830   0.0564 133.1916 0005938 292.0916 294.4483  1.00270999 39783
RASCOM-QAF 1R           
1 36831U 10037B   21141.35618772  .00000024  00000-0  00000-0 0  9996
2 36831   0.0068  83.1200 0004617 339.4859 307.7240  1.00272306 39714
YAOGAN 10               
1 36834U 10038A   21141.50303597  .00000071  00000-0  15964-4 0  9994
2 36834  97.9796 149.1207 0001628  74.6732 285.4661 14.81045433582766
AEHF-1 (USA 214)        
1 36868U 10039A   21141.28430529  .00000033  00000-0  00000-0 0  9992
2 36868   3.5592  92.2160 0006919 348.4587 264.8941  1.00267496 35075
TIANHUI 1               
1 36985U 10040A   21141.56738000  .00000967  00000-0  41008-4 0  9993
2 36985  97.7102 341.9443 0029598 232.9072 211.5754 15.25402923597385
COSMOS 2464 [GLONASS-M] 
1 37139U 10041C   21141.55336417 -.00000010  00000-0  00000-0 0  9994
2 37139  64.0680 254.0970 0027736  12.0819 305.2143  2.13100754 83396
CHINASAT 6A (ZX 6A)     
1 37150U 10042A   21141.61021597 -.00000349  00000-0  00000-0 0  9990
2 37150   0.0512 127.8642 0003060  54.7085  41.6262  1.00269036 39329
COSMOS 2467             
1 37152U 10043A   21141.42648698 -.00000002  00000-0 -86048-4 0  9996
2 37152  82.4547 143.9305 0000833 131.4247 228.6910 12.42901009485385
STRELA 3                
1 37153U 10043B   21141.48547304  .00000006  00000-0 -27455-4 0  9995
2 37153  82.4565 152.4626 0008360 136.2883 223.8858 12.40740862484674
COSMOS 2468             
1 37154U 10043C   21141.43373115  .00000002  00000-0 -55566-4 0  9998
2 37154  82.4590 142.2269 0015432  34.6385 325.5701 12.43663815485638
QZS-1 (MICHIBIKI-1)     
1 37158U 10045A   21141.31352933 -.00000037  00000-0  00000-0 0  9993
2 37158  41.9373 138.8388 0757658 270.5256  83.9557  1.00274275 39161
YAOGAN 11               
1 37165U 10047A   21141.33124847  .00000126  00000-0  26004-4 0  9990
2 37165  98.3031 262.3894 0039659  44.6838 315.7555 14.76326208574272
ZHEDA PIXING 1B         
1 37166U 10047B   21141.46106695  .00000209  00000-0  33410-4 0  9997
2 37166  97.7133 125.3988 0022272 230.4149 129.5110 14.81074089575816
ZHEDA PIXING 1C         
1 37167U 10047C   21141.44351311  .00000207  00000-0  33237-4 0  9998
2 37167  97.7423 121.9842 0021817 230.5682 129.3607 14.80946995575774
SBSS (USA 216)          
1 37168U 10048A   21141.43559763  .00000078  00000-0  16459-4 0  9993
2 37168  97.8672   3.3360 0000661  83.3591   0.9177 14.81647419575638
SJ-6G                   
1 37179U 10051A   21141.55897775 -.00000281  00000-0 -21119-4 0  9997
2 37179  97.7224 125.8445 0013269 355.2399   4.8692 14.93846097578848
SJ-6H                   
1 37180U 10051B   21141.51441546  .00000427  00000-0  45924-4 0  9996
2 37180  97.7301 125.1817 0012418  15.6463 344.5149 14.93466382578752
XM-5                    
1 37185U 10053A   21140.97970674 -.00000200  00000-0  00000-0 0  9993
2 37185   0.0172 244.1484 0004910 350.7693 271.4651  1.00271265 38900
GLOBALSTAR M079         
1 37188U 10054A   21141.33394314 -.00000094  00000-0  56477-4 0  9993
2 37188  52.0056 349.0590 0000762 102.6549  69.2808 12.62265886488637
GLOBALSTAR M074         
1 37189U 10054B   21141.36008519 -.00000092  00000-0  65916-4 0  9992
2 37189  52.0032 348.5324 0000808 105.5441  65.9114 12.62264337489167
GLOBALSTAR M076         
1 37190U 10054C   21141.44323028 -.00000100  00000-0  20308-4 0  9994
2 37190  52.0050 348.3126 0000370  68.7878   0.9710 12.62266515488895
GLOBALSTAR M077         
1 37191U 10054D   21141.41914531 -.00000100  00000-0  23047-4 0  9990
2 37191  52.0081 304.8154 0000729 112.6414 267.5347 12.62267685489360
GLOBALSTAR M075         
1 37192U 10054E   21141.39954443 -.00000104  00000-0 -10445-5 0  9998
2 37192  51.9971  31.5266 0000580  78.0816  92.9628 12.62265620488167
GLOBALSTAR M073         
1 37193U 10054F   21141.44748985 -.00000097  00000-0  39779-4 0  9997
2 37193  52.0067 304.0733 0000738 110.1296 277.8335 12.62266768489959
BSAT-3B                 
1 37207U 10056B   21141.37747330 -.00000346  00000-0  00000-0 0  9998
2 37207   0.0563 316.3796 0002797  38.2708 130.3343  1.00273111 33563
BEIDOU 6                
1 37210U 10057A   21141.60281847 -.00000107  00000-0  00000-0 0  9990
2 37210   0.8007  44.4597 0002426 134.3335  77.6734  1.00272337 38706
FENGYUN 3B              
1 37214U 10059A   21141.55919451 -.00000002  00000-0  22515-4 0  9992
2 37214  99.0798 135.1395 0017632  33.1282  74.1704 14.15986793545523
COSMO-SKYMED 4          
1 37216U 10060A   21141.48194449  .00000030  00000-0  10384-4 0  9991
2 37216  97.8894 325.7551 0001585  80.5699 279.5706 14.82151453570192
SKYTERRA 1              
1 37218U 10061A   21141.60111528 -.00000113  00000-0  00000-0 0  9998
2 37218   2.1498  15.9627 0003055   4.9761 333.5963  1.00271254 38619
ZHONGXING-20A           
1 37234U 10064A   21141.61021597 -.00000344  00000-0  00000-0 0  9992
2 37234   1.6794  92.9396 0003089 351.4279 141.1956  1.00270281 38455
HYLAS 1                 
1 37237U 10065A   21141.44722803 -.00000117  00000-0  00000-0 0  9993
2 37237   0.9440  94.0286 0002602 309.0765 155.9610  1.00270180 38401
INTELSAT 17 (IS-17)     
1 37238U 10065B   21141.36874969  .00000003  00000-0  00000-0 0  9999
2 37238   0.0100 260.6117 0002395 159.2903  18.0728  1.00270559 34661
BEIDOU 7                
1 37256U 10068A   21141.25377507 -.00000220  00000-0  00000-0 0  9998
2 37256  50.9099 294.3193 0084250 215.1147 300.0704  1.00263422 38216
EUTELSAT KA-SAT 9A      
1 37258U 10069A   21141.35740903  .00000067  00000-0  00000-0 0  9994
2 37258   0.0587 279.7833 0005642 185.4825 271.6054  1.00273393 25422
HISPASAT 30W-5          
1 37264U 10070A   21141.42141479 -.00000211  00000-0  00000-0 0  9996
2 37264   0.0218 100.2685 0004788 345.3449 275.3989  1.00269366 34605
KOREASAT 6              
1 37265U 10070B   21141.37869458 -.00000357  00000-0  00000-0 0  9996
2 37265   0.0088 347.4285 0002407  94.7209  49.3991  1.00267316 38190
COSMOS 2471 [GLONASS-K] 
1 37372U 11009A   21140.33804829 -.00000052  00000-0  00000+0 0  9995
2 37372  65.9323  16.4994 0014444 228.5133  85.4094  2.13051758 79587
BEIDOU 8                
1 37384U 11013A   21141.65928485 -.00000214  00000-0  00000-0 0  9995
2 37384  59.7423  58.1747 0052445 206.8586 330.1972  1.00261215 37096
RESOURCESAT-2           
1 37387U 11015A   21141.46229632  .00000013  00000-0  25480-4 0  9996
2 37387  98.6402 216.0944 0005333 116.2109 243.9626 14.21662484523469
